IRIDIUM 150             
1 43257U 18030J   24248.34738416  .00001064  00000+0  37279-3 0  9990
2 43257  86.4014 202.4501 0002010  86.9549 273.1876 14.34227086336872
IRIDIUM 143             
1 43258U 18030K   24248.39811380  .00001661  00000+0  58596-3 0  9996
2 43258  86.4013 202.4952 0001995  93.2645 266.8779 14.34220156336817
IRIDIUM 161             
1 43478U 18047C   24247.80575079  .00001713  00000+0  50295-3 0  9991
2 43478  86.4549   0.6828 0001990  94.7339 265.4089 14.43292569331187
IRIDIUM 152             
1 43479U 18047D   24248.37085176  .00001295  00000+0  45530-3 0  9990
2 43479  86.4026   0.3065 0002043  93.5344 266.6085 14.34225103329200
IRIDIUM 147             
1 43480U 18047E   24247.67951350  .00000542  00000+0  18646-3 0  9992
2 43480  86.4026   0.5889 0002228  91.6164 268.5287 14.34218296329101
IRIDIUM 110             
1 43481U 18047F   24248.38353055  .00001092  00000+0  38262-3 0  9997
2 43481  86.4029   0.3698 0002358  81.7968 278.3495 14.34222539329191
IRIDIUM 162             
1 43482U 18047G   24248.35412269  .00001775  00000+0  52157-3 0  9995
2 43482  86.4548   0.3531 0002092  85.7658 274.3782 14.43292233331252
